ESEO                    
1 43792U 18099AL  26068.65529582  .00002831  00000+0  20935-3 0  9991
2 43792  97.4113 110.2601 0011063 317.6000  42.4371 15.03914518396849
STARLINK-34654          
1 64858U 25152S   26068.83382394  .00002859  00000+0  20227-3 0  9997
2 64858  97.6015 285.7132 0001812  90.5043 269.6392 15.05650765 35445
